ONEWEB-0641             
1 55805U 23029K   23328.52376238  .00000002  00000+0 -26599-4 0  9990
2 55805  87.9112 131.2022 0001180  96.8937 263.2329 13.19724636 35508
ONEWEB-0642             
1 55806U 23029L   23328.51902546  .00000119  00000+0  26383-3 0  9995
2 55806  87.9185 131.2109 0001583 140.9151 219.2096 13.19728093 35492
ONEWEB-0643             
1 55807U 23029M   23328.42816443  .00000026  00000+0  35127-4 0  9990
2 55807  87.8963 115.9921 0001131 151.3496 208.7696 13.14506995 36450
ONEWEB-0644             
1 55808U 23029N   23328.51429517  .00000039  00000+0  65281-4 0  9991
2 55808  87.9184 131.2034 0000930 111.9445 248.1787 13.19724495 35499
ONEWEB-0645             
1 55809U 23029P   23328.51032659  .00000069  00000+0  14012-3 0  9997
2 55809  87.9183 131.2081 0000886  83.0695 277.0539 13.19726646 35493
ONEWEB-0646             
1 55810U 23029Q   23328.54035598  .00000059  00000+0  11614-3 0  9991
2 55810  87.9183 131.2051 0001320 104.4789 255.6491 13.19723141 35483
ONEWEB-0648             
1 55811U 23029R   23328.47257529  .00000195  00000+0  49248-3 0  9999
2 55811  87.8962 115.9520 0000421 127.5060 232.6108 13.14501612 36468
ONEWEB-0649             
1 55812U 23029S   23328.50323136  .00000078  00000+0  16192-3 0  9994
2 55812  87.9179 131.2118 0000927  96.8320 263.2918 13.19724251 35517
